{
 "generated_at": "2026-07-05T07:57:19Z",
 "sources": [
  {
   "name": "CelesTrak",
   "url": "https://celestrak.org/NORAD/elements/",
   "license": "frei verfügbar; Attribution. Ursprünglich USSPACECOM/Space-Track."
  },
  {
   "name": "GCAT (J. McDowell, planet4589.org)",
   "url": "https://planet4589.org/space/gcat/",
   "license": "CC-BY 4.0"
  }
 ],
 "satellites": [
  {
   "norad": 41790,
   "name": "SCATSAT 1",
   "intl": "2016-059H",
   "group": "resource",
   "gcat": {
    "class": null,
    "category": null,
    "owner": null,
    "state": null
   },
   "omm": {
    "OBJECT_NAME": "SCATSAT 1",
    "OBJECT_ID": "2016-059H",
    "EPOCH": "2026-07-04T11:00:42.949152",
    "MEAN_MOTION": 14.79567077,
    "ECCENTRICITY": 0.00544144,
    "INCLINATION": 98.1182,
    "RA_OF_ASC_NODE": 249.4027,
    "ARG_OF_PERICENTER": 191.0302,
    "MEAN_ANOMALY": 168.972,
    "EPHEMERIS_TYPE": 0,
    "CLASSIFICATION_TYPE": "U",
    "NORAD_CAT_ID": 41790,
    "ELEMENT_SET_NO": 999,
    "REV_AT_EPOCH": 10414,
    "BSTAR": 0.00021093488,
    "MEAN_MOTION_DOT": 0.00001562,
    "MEAN_MOTION_DDOT": 0
   }
  },
  {
   "norad": 22490,
   "name": "SCD 1",
   "intl": "1993-009B",
   "group": "resource",
   "gcat": {
    "class": "C",
    "category": "COM",
    "owner": "INPE",
    "state": "BR"
   },
   "omm": {
    "OBJECT_NAME": "SCD 1",
    "OBJECT_ID": "1993-009B",
    "EPOCH": "2026-07-04T12:08:00.371040",
    "MEAN_MOTION": 14.46126267,
    "ECCENTRICITY": 0.00416994,
    "INCLINATION": 24.9692,
    "RA_OF_ASC_NODE": 100.6429,
    "ARG_OF_PERICENTER": 321.5251,
    "MEAN_ANOMALY": 200.4215,
    "EPHEMERIS_TYPE": 0,
    "CLASSIFICATION_TYPE": "U",
    "NORAD_CAT_ID": 22490,
    "ELEMENT_SET_NO": 999,
    "REV_AT_EPOCH": 76362,
    "BSTAR": 0.000097600329,
    "MEAN_MOTION_DOT": 0.00000543,
    "MEAN_MOTION_DDOT": 0
   }
  },
  {
   "norad": 25504,
   "name": "SCD 2",
   "intl": "1998-060A",
   "group": "resource",
   "gcat": {
    "class": "C",
    "category": "COM",
    "owner": "INPE",
    "state": "BR"
   },
   "omm": {
    "OBJECT_NAME": "SCD 2",
    "OBJECT_ID": "1998-060A",
    "EPOCH": "2026-07-04T15:21:46.969344",
    "MEAN_MOTION": 14.45532756,
    "ECCENTRICITY": 0.00165833,
    "INCLINATION": 24.9964,
    "RA_OF_ASC_NODE": 324.5296,
    "ARG_OF_PERICENTER": 308.2024,
    "MEAN_ANOMALY": 153.1994,
    "EPHEMERIS_TYPE": 0,
    "CLASSIFICATION_TYPE": "U",
    "NORAD_CAT_ID": 25504,
    "ELEMENT_SET_NO": 999,
    "REV_AT_EPOCH": 46285,
    "BSTAR": 0.000076556475,
    "MEAN_MOTION_DOT": 0.00000457,
    "MEAN_MOTION_DDOT": 0
   }
  },
  {
   "norad": 39634,
   "name": "SENTINEL-1A",
   "intl": "2014-016A",
   "group": "resource",
   "gcat": {
    "class": "C",
    "category": "IMG-R",
    "owner": "ESA",
    "state": "I-ESA"
   },
   "omm": {
    "OBJECT_NAME": "SENTINEL-1A",
    "OBJECT_ID": "2014-016A",
    "EPOCH": "2026-07-04T13:53:37.840416",
    "MEAN_MOTION": 14.59199688,
    "ECCENTRICITY": 0.0001368,
    "INCLINATION": 98.1776,
    "RA_OF_ASC_NODE": 192.8577,
    "ARG_OF_PERICENTER": 84.1571,
    "MEAN_ANOMALY": 275.9784,
    "EPHEMERIS_TYPE": 0,
    "CLASSIFICATION_TYPE": "U",
    "NORAD_CAT_ID": 39634,
    "ELEMENT_SET_NO": 999,
    "REV_AT_EPOCH": 65255,
    "BSTAR": -0.000012693009,
    "MEAN_MOTION_DOT": -0.00000106,
    "MEAN_MOTION_DDOT": 0
   }
  },
  {
   "norad": 62261,
   "name": "SENTINEL-1C",
   "intl": "2024-235A",
   "group": "sar",
   "gcat": {
    "class": "C",
    "category": "IMG-R",
    "owner": "COPERN/ESA",
    "state": "I-EU"
   },
   "omm": {
    "OBJECT_NAME": "SENTINEL-1C",
    "OBJECT_ID": "2024-235A",
    "EPOCH": "2026-07-04T14:50:21.088032",
    "MEAN_MOTION": 14.59198116,
    "ECCENTRICITY": 0.00013762,
    "INCLINATION": 98.1823,
    "RA_OF_ASC_NODE": 192.6775,
    "ARG_OF_PERICENTER": 89.4218,
    "MEAN_ANOMALY": 270.714,
    "EPHEMERIS_TYPE": 0,
    "CLASSIFICATION_TYPE": "U",
    "NORAD_CAT_ID": 62261,
    "ELEMENT_SET_NO": 999,
    "REV_AT_EPOCH": 8395,
    "BSTAR": 0.000009302205,
    "MEAN_MOTION_DOT": -2e-8,
    "MEAN_MOTION_DDOT": 0
   }
  },
  {
   "norad": 66315,
   "name": "SENTINEL-1D",
   "intl": "2025-251A",
   "group": "sar",
   "gcat": {
    "class": "C",
    "category": "IMG-R",
    "owner": "COPERN/ESA",
    "state": "I-EU"
   },
   "omm": {
    "OBJECT_NAME": "SENTINEL-1D",
    "OBJECT_ID": "2025-251A",
    "EPOCH": "2026-07-04T10:43:42.812256",
    "MEAN_MOTION": 14.59197618,
    "ECCENTRICITY": 0.00013253,
    "INCLINATION": 98.1835,
    "RA_OF_ASC_NODE": 192.5636,
    "ARG_OF_PERICENTER": 90.7708,
    "MEAN_ANOMALY": 269.3644,
    "EPHEMERIS_TYPE": 0,
    "CLASSIFICATION_TYPE": "U",
    "NORAD_CAT_ID": 66315,
    "ELEMENT_SET_NO": 999,
    "REV_AT_EPOCH": 3524,
    "BSTAR": -0.000009031861,
    "MEAN_MOTION_DOT": -8.8e-7,
    "MEAN_MOTION_DDOT": 0
   }
  },
  {
   "norad": 40697,
   "name": "SENTINEL-2A",
   "intl": "2015-028A",
   "group": "resource",
   "gcat": {
    "class": "C",
    "category": "IMG",
    "owner": "COPERN/ESA",
    "state": "I-EU"
   },
   "omm": {
    "OBJECT_NAME": "SENTINEL-2A",
    "OBJECT_ID": "2015-028A",
    "EPOCH": "2026-07-04T15:03:16.742304",
    "MEAN_MOTION": 14.30820972,
    "ECCENTRICITY": 0.00012224,
    "INCLINATION": 98.568,
    "RA_OF_ASC_NODE": 260.2315,
    "ARG_OF_PERICENTER": 95.2587,
    "MEAN_ANOMALY": 264.8736,
    "EPHEMERIS_TYPE": 0,
    "CLASSIFICATION_TYPE": "U",
    "NORAD_CAT_ID": 40697,
    "ELEMENT_SET_NO": 999,
    "REV_AT_EPOCH": 57622,
    "BSTAR": 0.00013356151,
    "MEAN_MOTION_DOT": 0.00000306,
    "MEAN_MOTION_DDOT": 0
   }
  },
  {
   "norad": 42063,
   "name": "SENTINEL-2B",
   "intl": "2017-013A",
   "group": "resource",
   "gcat": {
    "class": "C",
    "category": "IMG",
    "owner": "COPERN/ESA",
    "state": "I-EU"
   },
   "omm": {
    "OBJECT_NAME": "SENTINEL-2B",
    "OBJECT_ID": "2017-013A",
    "EPOCH": "2026-07-04T14:52:54.053184",
    "MEAN_MOTION": 14.30813391,
    "ECCENTRICITY": 0.00012172,
    "INCLINATION": 98.5687,
    "RA_OF_ASC_NODE": 260.1487,
    "ARG_OF_PERICENTER": 88.9791,
    "MEAN_ANOMALY": 271.1532,
    "EPHEMERIS_TYPE": 0,
    "CLASSIFICATION_TYPE": "U",
    "NORAD_CAT_ID": 42063,
    "ELEMENT_SET_NO": 999,
    "REV_AT_EPOCH": 48713,
    "BSTAR": 0.00011287918,
    "MEAN_MOTION_DOT": 0.00000252,
    "MEAN_MOTION_DDOT": 0
   }
  },
  {
   "norad": 60989,
   "name": "SENTINEL-2C",
   "intl": "2024-157A",
   "group": "resource",
   "gcat": {
    "class": "C",
    "category": "IMG",
    "owner": "COPERN/ESA",
    "state": "I-EU"
   },
   "omm": {
    "OBJECT_NAME": "SENTINEL-2C",
    "OBJECT_ID": "2024-157A",
    "EPOCH": "2026-07-04T10:41:10.728384",
    "MEAN_MOTION": 14.30813178,
    "ECCENTRICITY": 0.00009172,
    "INCLINATION": 98.5686,
    "RA_OF_ASC_NODE": 259.9829,
    "ARG_OF_PERICENTER": 93.9148,
    "MEAN_ANOMALY": 266.2139,
    "EPHEMERIS_TYPE": 0,
    "CLASSIFICATION_TYPE": "U",
    "NORAD_CAT_ID": 60989,
    "ELEMENT_SET_NO": 999,
    "REV_AT_EPOCH": 9545,
    "BSTAR": 0.000034872286,
    "MEAN_MOTION_DOT": 4.8e-7,
    "MEAN_MOTION_DDOT": 0
   }
  },
  {
   "norad": 41335,
   "name": "SENTINEL-3A",
   "intl": "2016-011A",
   "group": "resource",
   "gcat": {
    "class": "C",
    "category": "IMG",
    "owner": "COPERN/ESA",
    "state": "I-EU"
   },
   "omm": {
    "OBJECT_NAME": "SENTINEL-3A",
    "OBJECT_ID": "2016-011A",
    "EPOCH": "2026-07-04T14:36:38.598048",
    "MEAN_MOTION": 14.26737858,
    "ECCENTRICITY": 0.00014266,
    "INCLINATION": 98.6242,
    "RA_OF_ASC_NODE": 252.7417,
    "ARG_OF_PERICENTER": 93.8118,
    "MEAN_ANOMALY": 266.3226,
    "EPHEMERIS_TYPE": 0,
    "CLASSIFICATION_TYPE": "U",
    "NORAD_CAT_ID": 41335,
    "ELEMENT_SET_NO": 999,
    "REV_AT_EPOCH": 54054,
    "BSTAR": 0.000085831808,
    "MEAN_MOTION_DOT": 0.00000164,
    "MEAN_MOTION_DDOT": 0
   }
  }
 ]
}
